CONNECTA IOT-1          
1 60472U 24149E   26160.21424259  .00003661  00000+0  15647-3 0  9994
2 60472  97.3756 236.6405 0000984   3.1533 356.9710 15.23479163100586
LOPEN                   
1 60473U 24149F   26160.20094532  .00013257  00000+0  34019-3 0  9997
2 60473  97.3773 243.5077 0000070 175.5026 184.6221 15.39457731101033
ROCK                    
1 60474U 24149G   26160.18749517  .00013436  00000+0  34478-3 0  9993
2 60474  97.3771 243.5104 0000362 230.4603 129.6611 15.39453605101037
CONNECTA IOT-3          
1 60475U 24149H   26160.10431988  .00003537  00000+0  15119-3 0  9998
2 60475  97.3731 236.2881 0001462 315.8124  44.2996 15.23489837100578
QUBE                    
1 60476U 24149J   26160.21747832  .00020556  00000+0  41075-3 0  9999
2 60476  97.3771 246.5000 0001247 218.8647 141.2513 15.46839436101239
WREN-1                  
1 60478U 24149L   26160.21431269  .00017736  00000+0  42822-3 0  9992
2 60478  97.3763 244.2453 0002914 289.5873  70.5059 15.41244326101093
TOMORROW-S1             
1 60479U 24149M   26160.04065656  .00006367  00000+0  20474-3 0  9994
2 60479  97.3746 240.5395 0000986 271.7367  88.3762 15.32602668100844
FLOCK 4BE-18            
1 60480U 24149N   26160.22743856  .00015533  00000+0  37102-3 0  9992
2 60480  97.3727 243.8755 0002382 275.6171  84.4805 15.41601022101084
FLOCK 4BE-7             
1 60481U 24149P   26160.22680790  .00018253  00000+0  45918-3 0  9996
2 60481  97.3753 243.2298 0001525 282.2429  77.8646 15.39992229101020
TOMORROW-S2             
1 60485U 24149T   26160.20190414  .00006240  00000+0  20053-3 0  9993
2 60485  97.3814 241.1814 0001442 323.8439  36.2705 15.32632091100861
FLOCK 4BE-36            
1 60486U 24149U   26160.20340453  .00014291  00000+0  33176-3 0  9999
2 60486  97.3742 244.5376 0002138 299.1049  60.9984 15.42478439101125
FLOCK 4BE-25            
1 60487U 24149V   26160.21910424  .00012222  00000+0  32236-3 0  9990
2 60487  97.3794 243.3167 0000749 279.9698  80.1463 15.38632206101013
FLOCK 4BE-31            
1 60488U 24149W   26159.98200249  .00017541  00000+0  38936-3 0  9992
2 60488  97.3796 245.1489 0001086 305.6366  54.4781 15.43775327101113
FLOCK 4BE-20            
1 60489U 24149X   26160.11344834  .00012085  00000+0  32693-3 0  9991
2 60489  97.3694 242.1102 0002200 296.6364  63.4655 15.37850000100974
FLOCK 4BE-23            
1 60490U 24149Y   26159.84134958  .00012740  00000+0  34878-3 0  9990
2 60490  97.3775 242.2087 0001935 311.9264  48.1815 15.37468438100915
FLOCK 4BE-15            
1 60491U 24149Z   26160.19227076  .00076187  00000+0  99695-3 0  9998
2 60491  97.3684 245.2828 0002046 254.4230 105.6800 15.58362814101186
FLOCK 4BE-17            
1 60492U 24149AA  26160.22685315  .00013376  00000+0  34206-3 0  9995
2 60492  97.3771 243.5359 0001587 281.9561  78.1507 15.39560900101032
NUSAT-50 (NANCY ROMAN)  
1 60493U 24149AB  26160.18831881  .00008258  00000+0  28942-3 0  9995
2 60493  97.3784 241.5008 0002707 200.4246 159.6887 15.29716764100908
FLOCK 4BE-22            
1 60494U 24149AC  26160.28043858  .00014200  00000+0  34707-3 0  9996
2 60494  97.3730 243.7682 0002129 300.7118  59.3919 15.40925771101087
FLOCK 4BE-34            
1 60495U 24149AD  26160.23264448  .00013872  00000+0  33908-3 0  9998
2 60495  97.3775 244.5377 0002152 317.3383  42.7696 15.40927312101105
TYCHE                   
1 60496U 24149AE  26160.20105036  .00003765  00000+0  14959-3 0  9998
2 60496  97.3752 238.1240 0000855 335.8711  24.2487 15.25922141100680
FLOCK 4BE-32            
1 60497U 24149AF  26160.20630036  .00015585  00000+0  36870-3 0  9991
2 60497  97.3718 244.0489 0002194 304.4973  55.6066 15.41891132101106
NUSAT-48 (HENRIETTA LE*)
1 60498U 24149AG  26159.98114924  .00009388  00000+0  32600-3 0  9999
2 60498  97.3910 241.5230 0002618 320.0002  40.1045 15.29978379100880
FLOCK 4BE-30            
1 60499U 24149AH  26160.21601752  .00111795  00000+0  16751-2 0  9992
2 60499  97.3781 245.4777 0003173 239.9999 120.0940 15.54554647100536
NUSAT-49 (KLARA DAN VO*)
1 60500U 24149AJ  26160.22090764  .00007623  00000+0  26660-3 0  9996
2 60500  97.3777 241.5644 0001676  17.8690 342.2609 15.29813995100919
FLOCK 4BE-11            
1 60501U 24149AK  26160.20516126  .00015236  00000+0  35067-3 0  9990
2 60501  97.3699 244.2706 0002338 303.1855  56.9168 15.42722134101124
YAM-7                   
1 60504U 24149AN  26160.21814114  .00006312  00000+0  20868-3 0  9990
2 60504  97.3779 240.5007 0002549 349.3092  10.8095 15.31709334100838
FLOCK 4BE-24            
1 60505U 24149AP  26160.19212456  .00018304  00000+0  41992-3 0  9994
2 60505  97.3712 244.5104 0002604 317.1306  42.9738 15.42778607101136
LUR-1                   
1 60506U 24149AQ  26160.19956711  .00005788  00000+0  20192-3 0  9995
2 60506  97.3735 239.0863 0003464 355.9064   4.2147 15.30002096100750
