OBJECT_NAME,OBJECT_ID,EPOCH,MEAN_MOTION,ECCENTRICITY,INCLINATION,RA_OF_ASC_NODE,ARG_OF_PERICENTER,MEAN_ANOMALY,EPHEMERIS_TYPE,CLASSIFICATION_TYPE,NORAD_CAT_ID,ELEMENT_SET_NO,REV_AT_EPOCH,BSTAR,MEAN_MOTION_DOT,MEAN_MOTION_DDOT
CONNECTA IOT-1,2024-149E,2026-06-09T05:08:30.559776,15.23479163,.00009848,97.3756,236.6405,3.1533,356.9710,0,U,60472,999,10058,.1564679E-3,.3661E-4,0
LOPEN,2024-149F,2026-06-09T04:49:21.675648,15.39457731,.00000707,97.3773,243.5077,175.5026,184.6221,0,U,60473,999,10103,.34018965E-3,.13257E-3,0
ROCK,2024-149G,2026-06-09T04:29:59.582688,15.39453605,.00003621,97.3771,243.5104,230.4603,129.6611,0,U,60474,999,10103,.34478196E-3,.13436E-3,0
CONNECTA IOT-3,2024-149H,2026-06-09T02:30:13.237632,15.23489837,.00014626,97.3731,236.2881,315.8124,44.2996,0,U,60475,999,10057,.15119493E-3,.3537E-4,0
QUBE,2024-149J,2026-06-09T05:13:10.126848,15.46839436,.00012472,97.3771,246.5000,218.8647,141.2513,0,U,60476,999,10123,.41075044E-3,.20556E-3,0
WREN-1,2024-149L,2026-06-09T05:08:36.616416,15.41244326,.00029148,97.3763,244.2453,289.5873,70.5059,0,U,60478,999,10109,.4282246E-3,.17736E-3,0
TOMORROW-S1,2024-149M,2026-06-09T00:58:32.726784,15.32602668,.00009869,97.3746,240.5395,271.7367,88.3762,0,U,60479,999,10084,.20474069E-3,.6367E-4,0
FLOCK 4BE-18,2024-149N,2026-06-09T05:27:30.691584,15.41601022,.00023825,97.3727,243.8755,275.6171,84.4805,0,U,60480,999,10108,.37102121E-3,.15533E-3,0
FLOCK 4BE-7,2024-149P,2026-06-09T05:26:36.202560,15.39992229,.00015255,97.3753,243.2298,282.2429,77.8646,0,U,60481,999,10102,.45917715E-3,.18253E-3,0
TOMORROW-S2,2024-149T,2026-06-09T04:50:44.517696,15.32632091,.00014427,97.3814,241.1814,323.8439,36.2705,0,U,60485,999,10086,.20053084E-3,.624E-4,0
FLOCK 4BE-36,2024-149U,2026-06-09T04:52:54.151392,15.42478439,.00021387,97.3742,244.5376,299.1049,60.9984,0,U,60486,999,10112,.33176456E-3,.14291E-3,0
FLOCK 4BE-25,2024-149V,2026-06-09T05:15:30.606336,15.38632206,.00007498,97.3794,243.3167,279.9698,80.1463,0,U,60487,999,10101,.32236321E-3,.12222E-3,0
FLOCK 4BE-31,2024-149W,2026-06-08T23:34:05.015136,15.43775327,.0001086,97.3796,245.1489,305.6366,54.4781,0,U,60488,999,10111,.38936119E-3,.17541E-3,0
FLOCK 4BE-20,2024-149X,2026-06-09T02:43:21.936576,15.37850000,.00022005,97.3694,242.1102,296.6364,63.4655,0,U,60489,999,10097,.32692998E-3,.12085E-3,0
FLOCK 4BE-23,2024-149Y,2026-06-08T20:11:32.603712,15.37468438,.0001935,97.3775,242.2087,311.9264,48.1815,0,U,60490,999,10091,.34877754E-3,.1274E-3,0
FLOCK 4BE-15,2024-149Z,2026-06-09T04:36:52.193664,15.58362814,.00020468,97.3684,245.2828,254.4230,105.6800,0,U,60491,999,10118,.99695254E-3,.76187E-3,0
FLOCK 4BE-17,2024-149AA,2026-06-09T05:26:40.112160,15.39560900,.00015878,97.3771,243.5359,281.9561,78.1507,0,U,60492,999,10103,.34206096E-3,.13376E-3,0
NUSAT-50 (NANCY ROMAN),2024-149AB,2026-06-09T04:31:10.745184,15.29716764,.00027072,97.3784,241.5008,200.4246,159.6887,0,U,60493,999,10090,.28941543E-3,.8258E-4,0
FLOCK 4BE-22,2024-149AC,2026-06-09T06:43:49.893312,15.40925771,.00021291,97.3730,243.7682,300.7118,59.3919,0,U,60494,999,10108,.34707335E-3,.142E-3,0
FLOCK 4BE-34,2024-149AD,2026-06-09T05:35:00.483072,15.40927312,.00021525,97.3775,244.5377,317.3383,42.7696,0,U,60495,999,10110,.33908087E-3,.13872E-3,0
TYCHE,2024-149AE,2026-06-09T04:49:30.751104,15.25922141,.00008559,97.3752,238.1240,335.8711,24.2487,0,U,60496,999,10068,.14959064E-3,.3765E-4,0
FLOCK 4BE-32,2024-149AF,2026-06-09T04:57:04.351104,15.41891132,.00021945,97.3718,244.0489,304.4973,55.6066,0,U,60497,999,10110,.36869715E-3,.15585E-3,0
NUSAT-48 (HENRIETTA LEAVITT),2024-149AG,2026-06-08T23:32:51.294336,15.29978379,.00026183,97.3910,241.5230,320.0002,40.1045,0,U,60498,999,10088,.32599615E-3,.9388E-4,0
FLOCK 4BE-30,2024-149AH,2026-06-09T05:11:03.913728,15.54554647,.00031731,97.3781,245.4777,239.9999,120.0940,0,U,60499,999,10053,.16751484E-2,.111795E-2,0
NUSAT-49 (KLARA DAN VON NEUMANN),2024-149AJ,2026-06-09T05:18:06.420096,15.29813995,.00016763,97.3777,241.5644,17.8690,342.2609,0,U,60500,999,10091,.26659727E-3,.7623E-4,0
FLOCK 4BE-11,2024-149AK,2026-06-09T04:55:25.932864,15.42722134,.0002338,97.3699,244.2706,303.1855,56.9168,0,U,60501,999,10112,.35067433E-3,.15236E-3,0
YAM-7,2024-149AN,2026-06-09T05:14:07.394496,15.31709334,.00025494,97.3779,240.5007,349.3092,10.8095,0,U,60504,999,10083,.20867751E-3,.6312E-4,0
FLOCK 4BE-24,2024-149AP,2026-06-09T04:36:39.561984,15.42778607,.00026048,97.3712,244.5104,317.1306,42.9738,0,U,60505,999,10113,.41992069E-3,.18304E-3,0
LUR-1,2024-149AQ,2026-06-09T04:47:22.598304,15.30002096,.00034649,97.3735,239.0863,355.9064,4.2147,0,U,60506,999,10075,.2019223E-3,.5788E-4,0
